{
    "links": {
        "self": "http://www.neowsapp.com/rest/v1/neo/54048813?api_key=iIulBulltgU6a56xZRHN4H3l9WmuAYTsLGpBGhQ2"
    },
    "id": "54048813",
    "neo_reference_id": "54048813",
    "name": "(2020 NH1)",
    "designation": "2020 NH1",
    "nasa_jpl_url": "http://ssd.jpl.nasa.gov/sbdb.cgi?sstr=54048813",
    "absolute_magnitude_h": 23.073,
    "estimated_diameter": {
        "kilometers": {
            "estimated_diameter_min": 0.0645587297,
            "estimated_diameter_max": 0.1443577082
        },
        "meters": {
            "estimated_diameter_min": 64.5587297405,
            "estimated_diameter_max": 144.3577082408
        },
        "miles": {
            "estimated_diameter_min": 0.0401149225,
            "estimated_diameter_max": 0.0896996935
        },
        "feet": {
            "estimated_diameter_min": 211.8068628818,
            "estimated_diameter_max": 473.6145435046
        }
    },
    "is_potentially_hazardous_asteroid": false,
    "close_approach_data": [
        {
            "close_approach_date": "2020-06-18",
            "close_approach_date_full": "2020-Jun-18 22:44",
            "epoch_date_close_approach": 1592520240000,
            "relative_velocity": {
                "kilometers_per_second": "7.0770410273",
                "kilometers_per_hour": "25477.3476984113",
                "miles_per_hour": "15830.6330740489"
            },
            "miss_distance": {
                "astronomical": "0.1216336023",
                "lunar": "47.3154712947",
                "kilometers": "18196127.824507101",
                "miles": "11306549.5384799538"
            },
            "orbiting_body": "Earth"
        },
        {
            "close_approach_date": "2023-05-21",
            "close_approach_date_full": "2023-May-21 08:51",
            "epoch_date_close_approach": 1684659060000,
            "relative_velocity": {
                "kilometers_per_second": "13.3162166836",
                "kilometers_per_hour": "47938.3800608023",
                "miles_per_hour": "29787.0450994469"
            },
            "miss_distance": {
                "astronomical": "0.320693189",
                "lunar": "124.749650521",
                "kilometers": "47975017.99790743",
                "miles": "29810293.862205334"
            },
            "orbiting_body": "Earth"
        }
    ],
    "orbital_data": {
        "orbit_id": "2",
        "orbit_determination_date": "2020-08-22 06:34:46",
        "first_observation_date": "2020-07-14",
        "last_observation_date": "2020-08-13",
        "data_arc_in_days": 30,
        "observations_used": 18,
        "orbit_uncertainty": "7",
        "minimum_orbit_intersection": ".0807107",
        "jupiter_tisserand_invariant": "3.618",
        "epoch_osculation": "2459000.5",
        "eccentricity": ".4776473672558062",
        "semi_major_axis": "2.063551827358395",
        "inclination": "7.644394319420853",
        "ascending_node_longitude": "121.4801781013866",
        "orbital_period": "1082.733310778704",
        "perihelion_distance": "1.07790172982475",
        "perihelion_argument": "150.6186881463897",
        "aphelion_distance": "3.049201924892041",
        "perihelion_time": "2459019.556191953940",
        "mean_anomaly": "353.6639715106905",
        "mean_motion": ".3324918485615699",
        "equinox": "J2000",
        "orbit_class": {
            "orbit_class_type": "AMO",
            "orbit_class_description": "Near-Earth asteroid orbits similar to that of 1221 Amor",
            "orbit_class_range": "1.017 AU < q (perihelion) < 1.3 AU"
        }
    },
    "is_sentry_object": false
}